CCSDS_OMM_VERS = 2.0
CREATION_DATE  = 
ORIGINATOR     = 

OBJECT_NAME    = SL-3 R/B
OBJECT_ID      = 1988-032B
CENTER_NAME    = EARTH
REF_FRAME      = TEME
TIME_SYSTEM    = UTC
MEAN_ELEMENT_THEORY = SGP/SGP4

EPOCH          = 2026-03-30T04:56:28.032000
MEAN_MOTION    = 15.20135128
ECCENTRICITY   = .002652
INCLINATION    = 97.5210
RA_OF_ASC_NODE = 72.3907
ARG_OF_PERICENTER = 158.5126
MEAN_ANOMALY   = 201.7228

EPHEMERIS_TYPE = 0
CLASSIFICATION_TYPE = U
NORAD_CAT_ID   = 19046
ELEMENT_SET_NO = 999
REV_AT_EPOCH   = 5522
BSTAR          = .29574E-3
MEAN_MOTION_DOT = .6384E-4
MEAN_MOTION_DDOT = 0

CCSDS_OMM_VERS = 2.0
CREATION_DATE  = 
ORIGINATOR     = 

OBJECT_NAME    = SL-16 R/B
OBJECT_ID      = 1988-039B
CENTER_NAME    = EARTH
REF_FRAME      = TEME
TIME_SYSTEM    = UTC
MEAN_ELEMENT_THEORY = SGP/SGP4

EPOCH          = 2026-03-30T01:29:29.312448
MEAN_MOTION    = 14.19619563
ECCENTRICITY   = .0023682
INCLINATION    = 71.0170
RA_OF_ASC_NODE = 25.4689
ARG_OF_PERICENTER = 305.1758
MEAN_ANOMALY   = 54.7148

EPHEMERIS_TYPE = 0
CLASSIFICATION_TYPE = U
NORAD_CAT_ID   = 19120
ELEMENT_SET_NO = 999
REV_AT_EPOCH   = 96127
BSTAR          = .96864E-4
MEAN_MOTION_DOT = .157E-5
MEAN_MOTION_DDOT = 0

CCSDS_OMM_VERS = 2.0
CREATION_DATE  = 
ORIGINATOR     = 

OBJECT_NAME    = COSMOS 1953
OBJECT_ID      = 1988-050A
CENTER_NAME    = EARTH
REF_FRAME      = TEME
TIME_SYSTEM    = UTC
MEAN_ELEMENT_THEORY = SGP/SGP4

EPOCH          = 2026-03-30T02:43:59.215584
MEAN_MOTION    = 15.28841804
ECCENTRICITY   = .001226
INCLINATION    = 82.5080
RA_OF_ASC_NODE = 137.7015
ARG_OF_PERICENTER = 58.8857
MEAN_ANOMALY   = 301.3583

EPHEMERIS_TYPE = 0
CLASSIFICATION_TYPE = U
NORAD_CAT_ID   = 19210
ELEMENT_SET_NO = 999
REV_AT_EPOCH   = 4090
BSTAR          = .31782E-3
MEAN_MOTION_DOT = .8958E-4
MEAN_MOTION_DDOT = 0

CCSDS_OMM_VERS = 2.0
CREATION_DATE  = 
ORIGINATOR     = 

OBJECT_NAME    = SL-8 R/B
OBJECT_ID      = 1988-053B
CENTER_NAME    = EARTH
REF_FRAME      = TEME
TIME_SYSTEM    = UTC
MEAN_ELEMENT_THEORY = SGP/SGP4

EPOCH          = 2026-03-30T02:24:18.117216
MEAN_MOTION    = 14.38930512
ECCENTRICITY   = .0021448
INCLINATION    = 74.0457
RA_OF_ASC_NODE = 74.8396
ARG_OF_PERICENTER = 251.3997
MEAN_ANOMALY   = 187.8996

EPHEMERIS_TYPE = 0
CLASSIFICATION_TYPE = U
NORAD_CAT_ID   = 19257
ELEMENT_SET_NO = 999
REV_AT_EPOCH   = 97953
BSTAR          = .14508E-3
MEAN_MOTION_DOT = .422E-5
MEAN_MOTION_DDOT = 0

CCSDS_OMM_VERS = 2.0
CREATION_DATE  = 
ORIGINATOR     = 

OBJECT_NAME    = COSMOS 1975
OBJECT_ID      = 1988-093A
CENTER_NAME    = EARTH
REF_FRAME      = TEME
TIME_SYSTEM    = UTC
MEAN_ELEMENT_THEORY = SGP/SGP4

EPOCH          = 2026-03-30T02:07:32.616480
MEAN_MOTION    = 15.28350397
ECCENTRICITY   = .0013393
INCLINATION    = 82.5159
RA_OF_ASC_NODE = 97.1986
ARG_OF_PERICENTER = 98.6469
MEAN_ANOMALY   = 261.6288

EPHEMERIS_TYPE = 0
CLASSIFICATION_TYPE = U
NORAD_CAT_ID   = 19573
ELEMENT_SET_NO = 999
REV_AT_EPOCH   = 2252
BSTAR          = .35896E-3
MEAN_MOTION_DOT = .9968E-4
MEAN_MOTION_DDOT = 0

CCSDS_OMM_VERS = 2.0
CREATION_DATE  = 
ORIGINATOR     = 

OBJECT_NAME    = SL-14 R/B
OBJECT_ID      = 1988-093B
CENTER_NAME    = EARTH
REF_FRAME      = TEME
TIME_SYSTEM    = UTC
MEAN_ELEMENT_THEORY = SGP/SGP4

EPOCH          = 2026-03-30T05:08:55.157856
MEAN_MOTION    = 14.85681207
ECCENTRICITY   = .0019995
INCLINATION    = 82.5340
RA_OF_ASC_NODE = 22.7797
ARG_OF_PERICENTER = 334.3417
MEAN_ANOMALY   = 140.7184

EPHEMERIS_TYPE = 0
CLASSIFICATION_TYPE = U
NORAD_CAT_ID   = 19574
ELEMENT_SET_NO = 999
REV_AT_EPOCH   = 406
BSTAR          = .75331E-4
MEAN_MOTION_DOT = .679E-5
MEAN_MOTION_DDOT = 0

CCSDS_OMM_VERS = 2.0
CREATION_DATE  = 
ORIGINATOR     = 

OBJECT_NAME    = SL-16 R/B
OBJECT_ID      = 1988-102B
CENTER_NAME    = EARTH
REF_FRAME      = TEME
TIME_SYSTEM    = UTC
MEAN_ELEMENT_THEORY = SGP/SGP4

EPOCH          = 2026-03-30T02:33:19.603296
MEAN_MOTION    = 14.16153513
ECCENTRICITY   = .0015177
INCLINATION    = 70.9970
RA_OF_ASC_NODE = 108.5377
ARG_OF_PERICENTER = 331.2496
MEAN_ANOMALY   = 28.7789

EPHEMERIS_TYPE = 0
CLASSIFICATION_TYPE = U
NORAD_CAT_ID   = 19650
ELEMENT_SET_NO = 999
REV_AT_EPOCH   = 92978
BSTAR          = .40309E-5
MEAN_MOTION_DOT = -.4E-6
MEAN_MOTION_DDOT = 0

CCSDS_OMM_VERS = 2.0
CREATION_DATE  = 
ORIGINATOR     = 

OBJECT_NAME    = INTERCOSMOS 24
OBJECT_ID      = 1989-080A
CENTER_NAME    = EARTH
REF_FRAME      = TEME
TIME_SYSTEM    = UTC
MEAN_ELEMENT_THEORY = SGP/SGP4

EPOCH          = 2026-03-30T01:23:07.440000
MEAN_MOTION    = 12.59584297
ECCENTRICITY   = .1186887
INCLINATION    = 82.6011
RA_OF_ASC_NODE = 91.1363
ARG_OF_PERICENTER = 245.5015
MEAN_ANOMALY   = 101.7937

EPHEMERIS_TYPE = 0
CLASSIFICATION_TYPE = U
NORAD_CAT_ID   = 20261
ELEMENT_SET_NO = 999
REV_AT_EPOCH   = 66936
BSTAR          = .18702E-3
MEAN_MOTION_DOT = .632E-5
MEAN_MOTION_DDOT = 0

CCSDS_OMM_VERS = 2.0
CREATION_DATE  = 
ORIGINATOR     = 

OBJECT_NAME    = SL-14 R/B
OBJECT_ID      = 1989-080C
CENTER_NAME    = EARTH
REF_FRAME      = TEME
TIME_SYSTEM    = UTC
MEAN_ELEMENT_THEORY = SGP/SGP4

EPOCH          = 2026-03-30T04:48:46.789056
MEAN_MOTION    = 12.50513554
ECCENTRICITY   = .1230897
INCLINATION    = 82.5953
RA_OF_ASC_NODE = 160.0249
ARG_OF_PERICENTER = 137.8897
MEAN_ANOMALY   = 232.3730

EPHEMERIS_TYPE = 0
CLASSIFICATION_TYPE = U
NORAD_CAT_ID   = 20262
ELEMENT_SET_NO = 999
REV_AT_EPOCH   = 66271
BSTAR          = .12501E-3
MEAN_MOTION_DOT = .444E-5
MEAN_MOTION_DDOT = 0

CCSDS_OMM_VERS = 2.0
CREATION_DATE  = 
ORIGINATOR     = 

OBJECT_NAME    = DELTA 1 R/B
OBJECT_ID      = 1989-089B
CENTER_NAME    = EARTH
REF_FRAME      = TEME
TIME_SYSTEM    = UTC
MEAN_ELEMENT_THEORY = SGP/SGP4

EPOCH          = 2026-03-30T04:12:42.087168
MEAN_MOTION    = 14.50680034
ECCENTRICITY   = .0070441
INCLINATION    = 97.0690
RA_OF_ASC_NODE = 293.3532
ARG_OF_PERICENTER = 58.5324
MEAN_ANOMALY   = 302.2734

EPHEMERIS_TYPE = 0
CLASSIFICATION_TYPE = U
NORAD_CAT_ID   = 20323
ELEMENT_SET_NO = 999
REV_AT_EPOCH   = 89870
BSTAR          = .1165E-3
MEAN_MOTION_DOT = .437E-5
MEAN_MOTION_DDOT = 0

CCSDS_OMM_VERS = 2.0
CREATION_DATE  = 
ORIGINATOR     = 

OBJECT_NAME    = ARIANE 40 R/B
OBJECT_ID      = 1990-005H
CENTER_NAME    = EARTH
REF_FRAME      = TEME
TIME_SYSTEM    = UTC
MEAN_ELEMENT_THEORY = SGP/SGP4

EPOCH          = 2026-03-30T02:30:58.512096
MEAN_MOTION    = 14.39883924
ECCENTRICITY   = .0011045
INCLINATION    = 98.3040
RA_OF_ASC_NODE = 149.1538
ARG_OF_PERICENTER = 139.0310
MEAN_ANOMALY   = 221.1711

EPHEMERIS_TYPE = 0
CLASSIFICATION_TYPE = U
NORAD_CAT_ID   = 20443
ELEMENT_SET_NO = 999
REV_AT_EPOCH   = 89574
BSTAR          = .11852E-3
MEAN_MOTION_DOT = .33E-5
MEAN_MOTION_DDOT = 0

CCSDS_OMM_VERS = 2.0
CREATION_DATE  = 
ORIGINATOR     = 

OBJECT_NAME    = DELTA 2 R/B(1)
OBJECT_ID      = 1990-008B
CENTER_NAME    = EARTH
REF_FRAME      = TEME
TIME_SYSTEM    = UTC
MEAN_ELEMENT_THEORY = SGP/SGP4

EPOCH          = 2026-03-30T05:02:14.305920
MEAN_MOTION    = 15.58726661
ECCENTRICITY   = .0077381
INCLINATION    = 35.6037
RA_OF_ASC_NODE = 39.9125
ARG_OF_PERICENTER = 91.1577
MEAN_ANOMALY   = 269.8026

EPHEMERIS_TYPE = 0
CLASSIFICATION_TYPE = U
NORAD_CAT_ID   = 20453
ELEMENT_SET_NO = 999
REV_AT_EPOCH   = 92933
BSTAR          = .91956E-3
MEAN_MOTION_DOT = .85338E-3
MEAN_MOTION_DDOT = 0

